NORAD_CAT_ID,OBJECT_NAME,OBJECT_TYPE,EPOCH,MEAN_MOTION,ECCENTRICITY,INCLINATION,RA_OF_ASC_NODE,ARG_OF_PERICENTER,MEAN_ANOMALY,BSTAR,MEAN_MOTION_DOT,MEAN_MOTION_DDOT,TLE_LINE0,TLE_LINE1,TLE_LINE2,SEMIMAJOR_AXIS,PERIOD,APOGEE,PERIGEE,DECAYED
52138.0,STARLINK-3723,PAYLOAD,2024-07-29 21:53:38,15.08838116,0.0001452,53.2168,187.7607,103.7806,256.3348,7.2401e-05,8.64e-06,0.0,0 STARLINK-3723,1 52138U 22029BC  24211.91224998  .00000864  00000-0  72401-4 0  9994,2 52138  53.2168 187.7607 0001452 103.7806 256.3348 15.08838116132209,6917.886,95.438,540.756,538.747,0.0
52138.0,STARLINK-3723,PAYLOAD,2024-07-30 04:15:11,15.08824938,0.000142,53.2168,186.5682,96.0253,264.0901,0.00013566,1.871e-05,0.0,0 STARLINK-3723,1 52138U 22029BC  24212.17721749  .00001871  00000-0  13566-3 0  9994,2 52138  53.2168 186.5682 0001420  96.0253 264.0901 15.08824938132246,6917.926,95.439,540.774,538.809,0.0
52138.0,STARLINK-3723,PAYLOAD,2024-07-30 05:50:34,15.0883454,0.0001412,53.2167,186.2712,93.2646,266.8508,5.283e-05,5.53e-06,0.0,0 STARLINK-3723,1 52138U 22029BC  24212.24345509  .00000553  00000-0  52830-4 0  9992,2 52138  53.2167 186.2712 0001412  93.2646 266.8508 15.08834540132256,6917.897,95.438,540.739,538.785,0.0
52138.0,STARLINK-3723,PAYLOAD,2024-07-30 15:22:52,15.08844709,0.0001481,53.217,184.4858,83.1145,277.0016,0.00012461,1.696e-05,0.0,0 STARLINK-3723,1 52138U 22029BC  24212.64088711  .00001696  00000-0  12461-3 0  9999,2 52138  53.2170 184.4858 0001481  83.1145 277.0016 15.08844709132312,6917.866,95.437,540.756,538.706,0.0
52138.0,STARLINK-3723,PAYLOAD,2024-07-31 05:41:20,15.08846697,0.0001369,53.2161,181.8131,87.4141,272.7007,8.7551e-05,1.106e-05,0.0,0 STARLINK-3723,1 52138U 22029BC  24213.23704653  .00001106  00000-0  87551-4 0  9994,2 52138  53.2161 181.8131 0001369  87.4141 272.7007 15.08846697132405,6917.86,95.437,540.672,538.778,0.0
52138.0,STARLINK-3723,PAYLOAD,2024-07-31 21:35:13,15.0882865,0.000151,53.2165,178.8361,91.9652,268.1513,-2.9101e-06,-3.34e-06,0.0,0 STARLINK-3723,1 52138U 22029BC  24213.89945850 -.00000334  00000-0 -29101-5 0  9994,2 52138  53.2165 178.8361 0001510  91.9652 268.1513 15.08828650132506,6917.915,95.438,540.825,538.735,0.0
52138.0,STARLINK-3723,PAYLOAD,2024-08-01 03:56:45,15.08830525,0.0001261,53.2161,177.6468,98.7328,261.3807,1.4369e-05,-5.9e-07,0.0,0 STARLINK-3723,1 52138U 22029BC  24214.16441752 -.00000059  00000-0  14369-4 0  9999,2 52138  53.2161 177.6468 0001261  98.7328 261.3807 15.08830525132544,6917.909,95.438,540.647,538.902,0.0
52138.0,STARLINK-3723,PAYLOAD,2024-08-02 03:47:31,15.08844095,0.0001338,53.2171,173.184,101.8118,258.3024,-8.2911e-06,-4.2e-06,0.0,0 STARLINK-3723,1 52138U 22029BC  24215.15800851 -.00000420  00000-0 -82911-5 0  9990,2 52138  53.2171 173.1840 0001338 101.8118 258.3024 15.08844095132698,6917.868,95.437,540.658,538.807,0.0
52138.0,STARLINK-3723,PAYLOAD,2024-08-02 06:58:18,15.08841681,0.0001331,53.2167,172.5922,94.0257,266.0888,-6.0688e-05,-1.254e-05,0.0,0 STARLINK-3723,1 52138U 22029BC  24215.29049182 -.00001254  00000-0 -60688-4 0  9999,2 52138  53.2167 172.5922 0001331  94.0257 266.0888 15.08841681132712,6917.875,95.437,540.661,538.819,0.0
52138.0,STARLINK-3723,PAYLOAD,2024-08-03 03:38:19,15.08823452,0.0001247,53.2163,168.7281,92.0461,268.0674,0.00024651,3.636e-05,0.0,0 STARLINK-3723,1 52138U 22029BC  24216.15161741  .00003636  00000-0  24651-3 0  9994,2 52138  53.2163 168.7281 0001247  92.0461 268.0674 15.08823452132849,6917.931,95.439,540.659,538.933,0.0
52138.0,STARLINK-3723,PAYLOAD,2024-08-03 06:49:05,15.08827535,0.00012,53.2154,168.1314,83.0935,277.0194,0.00026604,3.947e-05,0.0,0 STARLINK-3723,1 52138U 22029BC  24216.28409523  .00003947  00000-0  26604-3 0  9996,2 52138  53.2154 168.1314 0001200  83.0935 277.0194 15.08827535132860,6917.918,95.438,540.614,538.953,0.0
52138.0,STARLINK-3723,PAYLOAD,2024-08-04 13:01:24,15.08844902,0.0001385,53.217,162.4818,98.8306,261.2843,0.00019359,2.795e-05,0.0,0 STARLINK-3723,1 52138U 22029BC  24217.54264929  .00002795  00000-0  19359-3 0  9994,2 52138  53.2170 162.4818 0001385  98.8306 261.2843 15.08844902133059,6917.865,95.437,540.689,538.772,0.0
52138.0,STARLINK-3723,PAYLOAD,2024-08-04 20:58:20,15.08852019,0.0002317,53.2162,160.9937,84.6627,275.463,0.00015196,2.132e-05,0.0,0 STARLINK-3723,1 52138U 22029BC  24217.87385003  .00002132  00000-0  15196-3 0  9997,2 52138  53.2162 160.9937 0002317  84.6627 275.4630 15.08852019133105,6917.844,95.437,541.312,538.106,0.0
52138.0,STARLINK-3723,PAYLOAD,2024-08-05 12:52:10,15.08859684,0.0001251,53.2164,158.017,77.131,282.9822,0.00023245,3.415e-05,0.0,0 STARLINK-3723,1 52138U 22029BC  24218.53623741  .00003415  00000-0  23245-3 0  9994,2 52138  53.2164 158.0170 0001251  77.1310 282.9822 15.08859684133208,6917.82,95.436,540.551,538.82,0.0
52138.0,STARLINK-3723,PAYLOAD,2024-08-06 04:46:06,15.08814617,0.0001357,53.2164,155.0486,92.349,267.7658,-0.00012639,-2.297e-05,0.0,0 STARLINK-3723,1 52138U 22029BC  24219.19868428 -.00002297  00000-0 -12639-3 0  9994,2 52138  53.2164 155.0486 0001357  92.3490 267.7658 15.08814617133306,6917.958,95.439,540.762,538.884,0.0
52138.0,STARLINK-3723,PAYLOAD,2024-08-06 12:43:01,15.0882326,0.0001544,53.217,153.5628,91.0325,269.0844,-0.00016873,-2.971e-05,0.0,0 STARLINK-3723,1 52138U 22029BC  24219.52987319 -.00002971  00000-0 -16873-3 0  9995,2 52138  53.2170 153.5628 0001544  91.0325 269.0844 15.08823260133356,6917.932,95.439,540.865,538.728,0.0
52138.0,STARLINK-3723,PAYLOAD,2024-08-07 01:26:05,15.08844426,0.0001344,53.2152,151.1826,80.7609,279.3535,0.00037598,5.702e-05,0.0,0 STARLINK-3723,1 52138U 22029BC  24220.05978790  .00005702  00000-0  37598-3 0  9998,2 52138  53.2152 151.1826 0001344  80.7609 279.3535 15.08844426133435,6917.867,95.437,540.662,538.802,0.0
52138.0,STARLINK-3723,PAYLOAD,2024-08-08 04:27:38,15.08861412,0.0001413,53.2146,146.1257,123.7406,236.3721,0.00043525,6.65e-05,0.0,0 STARLINK-3723,1 52138U 22029BC  24221.18586143  .00006650  00000-0  43525-3 0  9990,2 52138  53.2146 146.1257 0001413 123.7406 236.3721 15.08861412133603,6917.815,95.436,540.657,538.702,0.0
52138.0,STARLINK-3723,PAYLOAD,2024-08-09 04:18:23,15.0882725,0.0001231,53.2146,141.6682,67.1709,292.9413,-0.001068,-0.00017239,0.0,0 STARLINK-3723,1 52138U 22029BC  24222.17943856 -.00017239  00000-0 -10680-2 0  9990,2 52138  53.2146 141.6682 0001231  67.1709 292.9413 15.08827250133754,6917.919,95.438,540.636,538.933,0.0
52138.0,STARLINK-3723,PAYLOAD,2024-08-09 12:15:19,15.08822066,0.0001375,53.2143,140.1819,65.9109,294.2027,-0.00022353,-3.842e-05,0.0,0 STARLINK-3723,1 52138U 22029BC  24222.51064541 -.00003842  00000-0 -22353-3 0  9999,2 52138  53.2143 140.1819 0001375  65.9109 294.2027 15.08822066133808,6917.935,95.439,540.751,538.849,0.0
52138.0,STARLINK-3723,PAYLOAD,2024-08-09 21:47:39,15.08822115,0.0001355,53.2147,138.3981,81.0755,279.039,-0.00021549,-3.714e-05,0.0,0 STARLINK-3723,1 52138U 22029BC  24222.90809404 -.00003714  00000-0 -21549-3 0  9991,2 52138  53.2147 138.3981 0001355  81.0755 279.0390 15.08822115133860,6917.935,95.439,540.737,538.863,0.0
52138.0,STARLINK-3723,PAYLOAD,2024-08-10 00:58:25,15.08838468,0.0001563,53.2157,137.8,93.7662,266.3509,-2.1589e-05,-6.32e-06,0.0,0 STARLINK-3723,1 52138U 22029BC  24223.04057540 -.00000632  00000-0 -21589-4 0  9994,2 52138  53.2157 137.8000 0001563  93.7662 266.3509 15.08838468133886,6917.885,95.438,540.831,538.669,0.0
52138.0,STARLINK-3723,PAYLOAD,2024-08-10 21:38:26,15.0884017,0.0001732,53.2162,133.9316,120.5632,239.5531,0.00043193,6.593e-05,0.0,0 STARLINK-3723,1 52138U 22029BC  24223.90169879  .00006593  00000-0  43193-3 0  9992,2 52138  53.2162 133.9316 0001732 120.5632 239.5531 15.08840170134019,6917.88,95.438,540.943,538.547,0.0
52138.0,STARLINK-3723,PAYLOAD,2024-08-11 03:59:59,15.08846124,0.0001295,53.2146,132.7424,102.2051,257.9086,0.00061952,9.587e-05,0.0,0 STARLINK-3723,1 52138U 22029BC  24224.16665739  .00009587  00000-0  61952-3 0  9996,2 52138  53.2146 132.7424 0001295 102.2051 257.9086 15.08846124134052,6917.862,95.437,540.623,538.831,0.0
52138.0,STARLINK-3723,PAYLOAD,2024-08-11 18:18:27,15.08845159,0.0001533,53.2166,130.0678,109.5762,250.5395,0.00032115,4.828e-05,0.0,0 STARLINK-3723,1 52138U 22029BC  24224.76281875  .00004828  00000-0  32115-3 0  9999,2 52138  53.2166 130.0678 0001533 109.5762 250.5395 15.08845159134149,6917.865,95.437,540.79,538.669,0.0
52138.0,STARLINK-3723,PAYLOAD,2024-08-11 21:29:14,15.08835312,8.16e-05,53.2163,129.4749,75.198,284.9102,7.2786e-05,8.71e-06,0.0,0 STARLINK-3723,1 52138U 22029BC  24224.89530102  .00000871  00000-0  72786-4 0  9996,2 52138  53.2163 129.4749 0000816  75.1980 284.9102 15.08835312134169,6917.895,95.438,540.324,539.195,0.0
52138.0,STARLINK-3723,PAYLOAD,2024-08-12 02:15:23,15.08846196,0.0001183,53.2151,128.5865,98.6491,261.4635,0.00038713,5.88e-05,0.0,0 STARLINK-3723,1 52138U 22029BC  24225.09402384  .00005880  00000-0  38713-3 0  9995,2 52138  53.2151 128.5865 0001183  98.6491 261.4635 15.08846196134196,6917.861,95.437,540.545,538.908,0.0
52138.0,STARLINK-3723,PAYLOAD,2024-08-12 10:12:18,15.08874693,0.0002291,53.2153,127.0921,67.3632,292.7603,0.0010252,0.00016081,0.0,0 STARLINK-3723,1 52138U 22029BC  24225.42520954  .00016081  00000-0  10252-2 0  9998,2 52138  53.2153 127.0921 0002291  67.3632 292.7603 15.08874693134247,6917.774,95.435,541.224,538.054,0.0
52138.0,STARLINK-3723,PAYLOAD,2024-08-12 18:09:14,15.08828389,0.000104,53.2148,125.6044,53.4547,306.6541,-0.00036671,-6.117e-05,0.0,0 STARLINK-3723,1 52138U 22029BC  24225.75641533 -.00006117  00000-0 -36671-3 0  9996,2 52138  53.2148 125.6044 0001040  53.4547 306.6541 15.08828389134295,6917.916,95.438,540.5,539.061,0.0
52138.0,STARLINK-3723,PAYLOAD,2024-08-12 22:55:24,15.08806497,0.000149,53.215,124.7123,105.6199,254.4958,-0.0013414,-0.00021553,0.0,0 STARLINK-3723,1 52138U 22029BC  24225.95513993 -.00021553  00000-0 -13414-2 0  9996,2 52138  53.2150 124.7123 0001490 105.6199 254.4958 15.08806497134320,6917.983,95.44,540.879,538.817,0.0
